[Satellite]
VERSION=1.1
NAME=COSMOS 2436 (723)
NICKNAME=COSMOS 2436 (723)
TLE1=1 32395U 07065C   22342.40078446  .00000040  00000+0  00000+0 0  9998
TLE2=2 32395  64.3678 235.5521 0016483   1.9219 171.4345  2.13102805116314
STATUS=0
